ONEWEB-0346             
1 49212U 21083AC  24090.53099157  .00000050  00000+0  92818-4 0  9992
2 49212  87.9168 136.4429 0002505  95.3372 264.8046 13.18685664123407
ONEWEB-0348             
1 49213U 21083AD  24090.48613400 -.00000306  00000+0 -78441-3 0  9991
2 49213  87.9145  75.3685 0002553  95.1611 264.9814 13.20771277130068
ONEWEB-0350             
1 49214U 21083AE  24090.57087896 -.00000238  00000+0 -68704-3 0  9991
2 49214  87.8912 121.1918 0002291 103.0340 257.1045 13.13469507124780
ONEWEB-0351             
1 49215U 21083AF  24090.47983534  .00000009  00000+0 -10761-4 0  9991
2 49215  87.9141  75.3726 0001049  69.6956 290.4290 13.20770767130020
ONEWEB-0352             
1 49216U 21083AG  24090.55183636  .00000127  00000+0  31194-3 0  9998
2 49216  87.8915 121.2242 0001705  96.6166 263.5157 13.13469468124879
ONEWEB-0354             
1 49217U 21083AH  24090.50507415  .00000088  00000+0  18327-3 0  9998
2 49217  87.9145  75.3495 0001975  97.9207 262.2150 13.20774331130067
ONEWEB-0355             
1 49218U 21083AJ  24090.58197909 -.00000190  00000+0 -55630-3 0  9994
2 49218  87.8915 121.2174 0001903  99.5649 260.5695 13.13471371124750
ONEWEB-0357             
1 49219U 21083AK  24090.50193727 -.00000014  00000+0 -65745-4 0  9995
2 49219  87.9142  75.3711 0001997  89.2469 270.8893 13.20770749130063
